NORAD_CAT_ID,OBJECT_NAME,OBJECT_TYPE,EPOCH,MEAN_MOTION,ECCENTRICITY,INCLINATION,RA_OF_ASC_NODE,ARG_OF_PERICENTER,MEAN_ANOMALY,BSTAR,MEAN_MOTION_DOT,MEAN_MOTION_DDOT,TLE_LINE0,TLE_LINE1,TLE_LINE2,SEMIMAJOR_AXIS,PERIOD,APOGEE,PERIGEE,DECAYED
51779.0,STARLINK-3611,PAYLOAD,2022-04-02 14:00:01,15.73159483,0.0001085,53.214,325.7456,87.322,154.3383,0.00055173,0.00077393,0.0,0 STARLINK-3611,1 51779U 22017M   22092.58335648  .00077393  00000-0  55173-3 0  9991,2 51779  53.2140 325.7456 0001085  87.3220 154.3383 15.73159483  6889,6728.011,91.536,350.606,349.146,0.0
51779.0,STARLINK-3611,PAYLOAD,2022-04-02 22:00:01,15.73216677,0.0001181,53.2141,324.0979,76.9088,253.6674,-0.00075164,-0.00104876,0.0,0 STARLINK-3611,1 51779U 22017M   22092.91668981 -.00104876  00000-0 -75164-3 0  9998,2 51779  53.2141 324.0979 0001181  76.9088 253.6674 15.73216677  6947,6727.848000000001,91.532,350.50699999999995,348.918,0.0
51779.0,STARLINK-3611,PAYLOAD,2022-04-03 04:00:00,15.73163668,0.0001105,53.214,322.861,70.0927,237.1267,-0.00018104,-0.00025909,0.0,0 STARLINK-3611,1 51779U 22017M   22093.16667824 -.00025909  00000-0 -18104-3 0  9991,2 51779  53.2140 322.8610 0001105  70.0927 237.1267 15.73163668  6987,6727.999,91.535,350.607,349.12,0.0
51779.0,STARLINK-3611,PAYLOAD,2022-04-03 22:00:00,15.73111832,0.0001496999999999,53.2139,319.1496,75.6411,161.5143,0.00023369,0.00032179,0.0,0 STARLINK-3611,1 51779U 22017M   22093.91667824  .00032179  00000-0  23369-3 0  9998,2 51779  53.2139 319.1496 0001497  75.6411 161.5143 15.73111832  3693,6728.147,91.538,351.019,349.004,0.0
51779.0,STARLINK-3611,PAYLOAD,2022-04-04 04:00:00,15.73137154,0.0001418,53.2131,317.9124,75.3958,138.3834,0.00043018,0.00060023,0.0,0 STARLINK-3611,1 51779U 22017M   22094.16667824  .00060023  00000-0  43018-3 0  9998,2 51779  53.2131 317.9124 0001418  75.3958 138.3834 15.73137154  7132,6728.074000000001,91.537,350.89300000000014,348.985,0.0
51779.0,STARLINK-3611,PAYLOAD,2022-04-04 14:00:01,15.73301117,9.4e-05,53.2136,315.8479,74.1545,340.9504,0.00066481,0.00094141,0.0,0 STARLINK-3611,1 51779U 22017M   22094.58334491  .00094141  00000-0  66481-3 0  9992,2 51779  53.2136 315.8479 0000940  74.1545 340.9504 15.73301117  7200,6727.607,91.527,350.10400000000016,348.84,0.0
51779.0,STARLINK-3611,PAYLOAD,2022-04-04 22:00:00,15.73399982,9.67e-05,53.2137,314.2,57.2454,86.98100000000002,-0.00032563,-0.00046459,0.0,0 STARLINK-3611,1 51779U 22017M   22094.91667824 -.00046459  00000-0 -32563-3 0  9993,2 51779  53.2137 314.2000 0000967  57.2454  86.9810 15.73399982  3709,6727.325,91.522,349.841,348.54,0.0
51779.0,STARLINK-3611,PAYLOAD,2022-04-05 06:00:00,15.7342363,9.78e-05,53.2137,312.5491,58.4421,174.9142,-0.0026255,-0.00357268,0.0,0 STARLINK-3611,1 51779U 22017M   22095.25001157 -.00357268  00000-0 -26255-2 0  9995,2 51779  53.2137 312.5491 0000978  58.4421 174.9142 15.73423630  7307,6727.2580000000025,91.52,349.781,348.465,0.0
51779.0,STARLINK-3611,PAYLOAD,2022-04-05 14:00:01,15.73148125,9.93e-05,53.214,310.8979,70.17,252.2906,-0.00094954,-0.00131522,0.0,0 STARLINK-3611,1 51779U 22017M   22095.58335648 -.00131522  00000-0 -94954-3 0  9991,2 51779  53.2140 310.8979 0000993  70.1700 252.2906 15.73148125  3702,6728.043000000002,91.536,350.576,349.24,0.0
51779.0,STARLINK-3611,PAYLOAD,2022-04-05 16:00:00,15.73144715,9.42e-05,53.214,310.4861,65.3779,9.2385,-0.00092711,-0.00128456,0.0,0 STARLINK-3611,1 51779U 22017M   22095.66667824 -.00128456  00000-0 -92711-3 0  9995,2 51779  53.2140 310.4861 0000942  65.3779   9.2385 15.73144715  7373,6728.053000000001,91.536,350.552,349.284,0.0
51779.0,STARLINK-3611,PAYLOAD,2022-04-05 22:00:00,15.730465300000002,0.0001033,53.2137,309.2507,54.3053,356.9322,-0.00012382,-0.00017844,0.0,0 STARLINK-3611,1 51779U 22017M   22095.91667824 -.00017844  00000-0 -12382-3 0  9997,2 51779  53.2137 309.2507 0001033  54.3053 356.9322 15.73046530  3709,6728.333000000001,91.542,350.89300000000014,349.50300000000016,0.0
51779.0,STARLINK-3611,PAYLOAD,2022-04-06 06:00:02,15.73031901,9.1e-05,53.2132,307.6003,53.9467,86.0851,0.00063444,0.00088721,0.0,0 STARLINK-3611,1 51779U 22017M   22096.25002315  .00088721  00000-0  63444-3 0  9998,2 51779  53.2132 307.6003 0000910  53.9467  86.0851 15.73031901  7465,6728.374,91.543,350.852,349.62699999999984,0.0
51779.0,STARLINK-3611,PAYLOAD,2022-04-06 14:00:01,15.73144074,8.909999999999997e-05,53.2135,305.9502,72.8257,155.8661,0.00043341,0.00060499,0.0,0 STARLINK-3611,1 51779U 22017M   22096.58334491  .00060499  00000-0  43341-3 0  9993,2 51779  53.2135 305.9502 0000891  72.8257 155.8661 15.73144074  3701,6728.055,91.536,350.519,349.32,0.0
51779.0,STARLINK-3611,PAYLOAD,2022-04-06 22:00:00,15.73143966,0.0001007,53.2137,304.3028,53.0066,264.5906,0.00024685,0.00034081,0.0,0 STARLINK-3611,1 51779U 22017M   22096.91667824  .00034081  00000-0  24685-3 0  9997,2 51779  53.2137 304.3028 0001007  53.0066 264.5906 15.73143966  3707,6728.055,91.536,350.597,349.242,0.0
51779.0,STARLINK-3611,PAYLOAD,2022-04-07 14:00:01,15.73235943,0.0001036,53.214,301.0016,62.609,72.8171,-0.00032486,-0.00046031,0.0,0 STARLINK-3611,1 51779U 22017M   22097.58334491 -.00046031  00000-0 -32486-3 0  9990,2 51779  53.2140 301.0016 0001036  62.6090  72.8171 15.73235943  3708,6727.793000000002,91.531,350.355,348.961,0.0
51779.0,STARLINK-3611,PAYLOAD,2022-04-07 20:00:01,15.73234656,0.0001301,53.2136,299.766,55.7355,56.429,-0.00044069,-0.00062104,0.0,0 STARLINK-3611,1 51779U 22017M   22097.83334491 -.00062104  00000-0 -44069-3 0  9997,2 51779  53.2136 299.7660 0001301  55.7355  56.4290 15.73234656  7718,6727.795999999999,91.531,350.537,348.786,0.0
51779.0,STARLINK-3611,PAYLOAD,2022-04-07 22:00:00,15.73204646,0.000139,53.2137,299.3540000000001,54.5185,169.8921,-5.9607e-05,-8.978e-05,0.0,0 STARLINK-3611,1 51779U 22017M   22097.91667824 -.00008978  00000-0 -59607-4 0  9999,2 51779  53.2137 299.3540 0001390  54.5185 169.8921 15.73204646  3697,6727.882,91.533,350.682,348.81199999999984,0.0
51779.0,STARLINK-3611,PAYLOAD,2022-04-08 06:00:00,15.73226081,0.0001305,53.2131,297.703,61.1051,252.24400000000003,0.00025356,0.00035154,0.0,0 STARLINK-3611,1 51779U 22017M   22098.25001157  .00035154  00000-0  25356-3 0  9995,2 51779  53.2131 297.7030 0001305  61.1051 252.2440 15.73226081  7783,6727.821,91.532,350.564,348.80800000000005,0.0
51779.0,STARLINK-3611,PAYLOAD,2022-04-08 14:00:03,15.73217215,0.000103,53.2135,296.0527,61.1548,341.2545,-0.0002754,-0.00039118,0.0,0 STARLINK-3611,1 51779U 22017M   22098.58336806 -.00039118  00000-0 -27540-3 0  9996,2 51779  53.2135 296.0527 0001030  61.1548 341.2545 15.73217215  7836,6727.846,91.532,350.404,349.01800000000014,0.0
51779.0,STARLINK-3611,PAYLOAD,2022-04-08 22:00:00,15.73146209,0.0001273,53.2136,294.4054,51.9422,79.2647,0.00065854,0.00092612,0.0,0 STARLINK-3611,1 51779U 22017M   22098.91667824  .00092612  00000-0  65854-3 0  9996,2 51779  53.2136 294.4054 0001273  51.9422  79.2647 15.73146209  3674,6728.049,91.536,350.77,349.057,0.0
51779.0,STARLINK-3611,PAYLOAD,2022-04-09 06:00:00,15.7325266,0.0001286999999999,53.2137,292.7543,56.6497,163.4611,-0.00049026,-0.00069017,0.0,0 STARLINK-3611,1 51779U 22017M   22099.25001157 -.00069017  00000-0 -49026-3 0  9993,2 51779  53.2137 292.7543 0001287  56.6497 163.4611 15.73252660  7937,6727.745,91.53,350.476,348.744,0.0
51779.0,STARLINK-3611,PAYLOAD,2022-04-09 14:00:01,15.73211111,0.000156,53.2138,291.1043,66.633,242.4229,-0.00049797,-0.00069964,0.0,0 STARLINK-3611,1 51779U 22017M   22099.58334491 -.00069964  00000-0 -49797-3 0  9995,2 51779  53.2138 291.1043 0001560  66.6330 242.4229 15.73211111  3707,6727.863,91.533,350.778,348.67900000000014,0.0
51779.0,STARLINK-3611,PAYLOAD,2022-04-09 22:00:00,15.73165978,0.0001769,53.2135,289.4567,58.6527,339.3599,0.00076831,0.00108453,0.0,0 STARLINK-3611,1 51779U 22017M   22099.91667824  .00108453  00000-0  76831-3 0  9995,2 51779  53.2135 289.4567 0001769  58.6527 339.3599 15.73165978  8042,6727.9919999999975,91.535,351.047,348.667,0.0
51779.0,STARLINK-3611,PAYLOAD,2022-04-10 14:00:01,15.733032,0.0001347,53.2131,286.1556,62.5237,153.3974,-0.00078841,-0.00110315,0.0,0 STARLINK-3611,1 51779U 22017M   22100.58334491 -.00110315  00000-0 -78841-3 0  9997,2 51779  53.2131 286.1556 0001347  62.5237 153.3974 15.73303200  8148,6727.601,91.527,350.372,348.56,0.0
51779.0,STARLINK-3611,PAYLOAD,2022-04-10 22:00:00,15.73240662,0.0001462,53.2131,284.5078,47.1534,257.8112,-0.00022681,-0.00032385,0.0,0 STARLINK-3611,1 51779U 22017M   22100.91667824 -.00032385  00000-0 -22681-3 0  9994,2 51779  53.2131 284.5078 0001462  47.1534 257.8112 15.73240662  3710,6727.779,91.531,350.62800000000016,348.661,0.0
51779.0,STARLINK-3611,PAYLOAD,2022-04-11 04:00:01,15.73197376,0.0001537,53.213,283.2691,53.5661,228.1642,-0.00044684,-0.00062859,0.0,0 STARLINK-3611,1 51779U 22017M   22101.16668981 -.00062859  00000-0 -44684-3 0  9993,2 51779  53.2130 283.2691 0001537  53.5661 228.1642 15.73197376  8235,6727.903,91.533,350.802,348.7340000000001,0.0
51779.0,STARLINK-3611,PAYLOAD,2022-04-11 12:00:00,15.73162089,0.0001554,53.2133,281.6186,59.6595,310.8811,0.00036704,0.00051122,0.0,0 STARLINK-3611,1 51779U 22017M   22101.50001157  .00051122  00000-0  36704-3 0  9990,2 51779  53.2133 281.6186 0001554  59.6595 310.8811 15.73162089  8297,6728.003000000002,91.535,350.914,348.8230000000001,0.0
51779.0,STARLINK-3611,PAYLOAD,2022-04-11 14:00:01,15.73205701,0.0001551999999999,53.2133,281.2067,58.4108,64.3427,-0.00025091,-0.00035694,0.0,0 STARLINK-3611,1 51779U 22017M   22101.58334491 -.00035694  00000-0 -25091-3 0  9993,2 51779  53.2133 281.2067 0001552  58.4108  64.3427 15.73205701  3700,6727.879,91.533,350.788,348.7,0.0
51779.0,STARLINK-3611,PAYLOAD,2022-04-11 20:00:01,15.73185717,0.0001518,53.213,279.9712,45.9924,53.4534,-0.0006207,-0.00086788,0.0,0 STARLINK-3611,1 51779U 22017M   22101.83334491 -.00086788  00000-0 -62070-3 0  9999,2 51779  53.2130 279.9712 0001518  45.9924  53.4534 15.73185717  8344,6727.936,91.534,350.82199999999995,348.78,0.0
